start=new Date('2022-02-06T00:00:00.000Z').valueOf();
sats=[{"TLE_LINE1":"1 48464U 21040AN  22036.43279135  .00000467  00000-0  50270-4 0  9995","RCS_SIZE":"LARGE","REV_AT_EPOCH":"4142","COUNTRY_CODE":"US","REF_FRAME":"TEME","MEAN_MOTION_DDOT":"0.0000000000000","RA_OF_ASC_NODE":"55.1182","MEAN_ANOMALY":"298.0131","TIME_SYSTEM":"UTC","CENTER_NAME":"EARTH","SITE":"AFETR","EPHEMERIS_TYPE":"0","PERIOD":"95.592","TLE_LINE2":"2 48464  53.0557  55.1182 0001458  62.1006 298.0131 15.06403564 41427","ECCENTRICITY":"0.00014580","OBJECT_NAME":"STARLINK-2686","APOAPSIS":"548.212","SEMIMAJOR_AXIS":"6925.338","ARG_OF_PERICENTER":"62.1006","ELEMENT_SET_NO":"999","PERIAPSIS":"546.193","MEAN_MOTION":"15.06403564","OBJECT_TYPE":"PAYLOAD","OBJECT_ID":"2021-040AN","DECAY_DATE":null,"LAUNCH_DATE":"2021-05-09","MEAN_MOTION_DOT":"0.00000467","NORAD_CAT_ID":"48464","INCLINATION":"53.0557","FILE":"3292709","CLASSIFICATION_TYPE":"U","MEAN_ELEMENT_THEORY":"SGP4","BSTAR":"0.00005027000000","GP_ID":"195367941","EPOCH":"2022-02-05T10:23:13.172640"},{"PERIAPSIS":"546.154","MEAN_MOTION":"15.06393284","ELEMENT_SET_NO":"999","DECAY_DATE":null,"OBJECT_ID":"2021-040AP","OBJECT_TYPE":"PAYLOAD","NORAD_CAT_ID":"48465","FILE":"3292709","INCLINATION":"53.0563","LAUNCH_DATE":"2021-05-09","MEAN_MOTION_DOT":"-0.00002695","EPOCH":"2022-02-05T12:14:41.327520","GP_ID":"195368191","CLASSIFICATION_TYPE":"U","BSTAR":"-0.00016211000000","MEAN_ELEMENT_THEORY":"SGP4","REV_AT_EPOCH":"4144","COUNTRY_CODE":"US","TLE_LINE1":"1 48465U 21040AP  22036.51020055 -.00002695  00000-0 -16211-3 0  9993","RCS_SIZE":"LARGE","TIME_SYSTEM":"UTC","REF_FRAME":"TEME","MEAN_MOTION_DDOT":"0.0000000000000","MEAN_ANOMALY":"291.1375","RA_OF_ASC_NODE":"54.7664","ECCENTRICITY":"0.00015600","TLE_LINE2":"2 48465  53.0563  54.7664 0001560  68.9780 291.1375 15.06393284 41445","SITE":"AFETR","CENTER_NAME":"EARTH","PERIOD":"95.593","EPHEMERIS_TYPE":"0","ARG_OF_PERICENTER":"68.9780","SEMIMAJOR_AXIS":"6925.369","APOAPSIS":"548.314","OBJECT_NAME":"STARLINK-2681"},{"TLE_LINE1":"1 48466U 21040AQ  22036.76083985 -.00001748  00000-0 -98494-4 0  9994","RCS_SIZE":"LARGE","REV_AT_EPOCH":"4275","COUNTRY_CODE":"US","MEAN_MOTION_DDOT":"0.0000000000000","REF_FRAME":"TEME","MEAN_ANOMALY":"298.6856","RA_OF_ASC_NODE":"53.6401","TIME_SYSTEM":"UTC","CENTER_NAME":"EARTH","SITE":"AFETR","EPHEMERIS_TYPE":"0","PERIOD":"95.592","ECCENTRICITY":"0.00017940","TLE_LINE2":"2 48466  53.0546  53.6401 0001794  61.4313 298.6856 15.06400734 42753","OBJECT_NAME":"STARLINK-2687","ARG_OF_PERICENTER":"61.4313","SEMIMAJOR_AXIS":"6925.346","APOAPSIS":"548.454","ELEMENT_SET_NO":"999","PERIAPSIS":"545.969","MEAN_MOTION":"15.06400734","DECAY_DATE":null,"OBJECT_ID":"2021-040AQ","OBJECT_TYPE":"PAYLOAD","LAUNCH_DATE":"2021-05-09","MEAN_MOTION_DOT":"-0.00001748","NORAD_CAT_ID":"48466","FILE":"3292916","INCLINATION":"53.0546","CLASSIFICATION_TYPE":"U","BSTAR":"-0.00009849400000","MEAN_ELEMENT_THEORY":"SGP4","EPOCH":"2022-02-05T18:15:36.563040","GP_ID":"195376644"},{"MEAN_ANOMALY":"302.7731","RA_OF_ASC_NODE":"55.0171","REF_FRAME":"TEME","MEAN_MOTION_DDOT":"0.0000000000000","TIME_SYSTEM":"UTC","RCS_SIZE":"LARGE","TLE_LINE1":"1 48467U 21040AR  22036.45489467  .00013519  00000-0  92425-3 0  9990","COUNTRY_CODE":"US","REV_AT_EPOCH":"4143","OBJECT_NAME":"STARLINK-2659","SEMIMAJOR_AXIS":"6925.287","ARG_OF_PERICENTER":"57.3390","APOAPSIS":"548.101","EPHEMERIS_TYPE":"0","PERIOD":"95.591","CENTER_NAME":"EARTH","SITE":"AFETR","ECCENTRICITY":"0.00013710","TLE_LINE2":"2 48467  53.0555  55.0171 0001371  57.3390 302.7731 15.06420110 41437","DECAY_DATE":null,"OBJECT_ID":"2021-040AR","OBJECT_TYPE":"PAYLOAD","ELEMENT_SET_NO":"999","MEAN_MOTION":"15.06420110","PERIAPSIS":"546.202","BSTAR":"0.00092425000000","MEAN_ELEMENT_THEORY":"SGP4","CLASSIFICATION_TYPE":"U","EPOCH":"2022-02-05T10:55:02.899488","GP_ID":"195369188","MEAN_MOTION_DOT":"0.00013519","LAUNCH_DATE":"2021-05-09","FILE":"3292709","INCLINATION":"53.0555","NORAD_CAT_ID":"48467"},{"LAUNCH_DATE":"2021-05-09","MEAN_MOTION_DOT":"-0.00001600","NORAD_CAT_ID":"48468","FILE":"3292882","INCLINATION":"53.0553","CLASSIFICATION_TYPE":"U","BSTAR":"-0.00008853300000","MEAN_ELEMENT_THEORY":"SGP4","EPOCH":"2022-02-05T18:26:13.764768","GP_ID":"195376663","ELEMENT_SET_NO":"999","PERIAPSIS":"546.092","MEAN_MOTION":"15.06397281","DECAY_DATE":null,"OBJECT_TYPE":"PAYLOAD","OBJECT_ID":"2021-040AS","SITE":"AFETR","CENTER_NAME":"EARTH","EPHEMERIS_TYPE":"0","PERIOD":"95.592","ECCENTRICITY":"0.00016320","TLE_LINE2":"2 48468  53.0553  53.5962 0001632  62.3513 297.7641 15.06397281 42751","OBJECT_NAME":"STARLINK-2685","SEMIMAJOR_AXIS":"6925.357","ARG_OF_PERICENTER":"62.3513","APOAPSIS":"548.352","TLE_LINE1":"1 48468U 21040AS  22036.76821487 -.00001600  00000-0 -88533-4 0  9993","RCS_SIZE":"LARGE","REV_AT_EPOCH":"4275","COUNTRY_CODE":"US","MEAN_MOTION_DDOT":"0.0000000000000","REF_FRAME":"TEME","MEAN_ANOMALY":"297.7641","RA_OF_ASC_NODE":"53.5962","TIME_SYSTEM":"UTC"},{"LAUNCH_DATE":"2021-05-09","MEAN_MOTION_DOT":"0.00007723","NORAD_CAT_ID":"48469","FILE":"3292709","INCLINATION":"53.0545","CLASSIFICATION_TYPE":"U","BSTAR":"0.00053667000000","MEAN_ELEMENT_THEORY":"SGP4","EPOCH":"2022-02-05T07:38:41.936352","GP_ID":"195367692","ELEMENT_SET_NO":"999","PERIAPSIS":"546.276","MEAN_MOTION":"15.06406318","DECAY_DATE":null,"OBJECT_ID":"2021-040AT","OBJECT_TYPE":"PAYLOAD","CENTER_NAME":"EARTH","SITE":"AFETR","EPHEMERIS_TYPE":"0","PERIOD":"95.592","ECCENTRICITY":"0.00013260","TLE_LINE2":"2 48469  53.0545  55.6284 0001326  92.6020 267.5121 15.06406318 41414","OBJECT_NAME":"STARLINK-2661","SEMIMAJOR_AXIS":"6925.329","ARG_OF_PERICENTER":"92.6020","APOAPSIS":"548.112","TLE_LINE1":"1 48469U 21040AT  22036.31854093  .00007723  00000-0  53667-3 0  9993","RCS_SIZE":"LARGE","REV_AT_EPOCH":"4141","COUNTRY_CODE":"US","REF_FRAME":"TEME","MEAN_MOTION_DDOT":"0.0000000000000","MEAN_ANOMALY":"267.5121","RA_OF_ASC_NODE":"55.6284","TIME_SYSTEM":"UTC"},{"NORAD_CAT_ID":"48470","INCLINATION":"53.0551","FILE":"3292709","LAUNCH_DATE":"2021-05-09","MEAN_MOTION_DOT":"0.00000620","GP_ID":"195368444","EPOCH":"2022-02-05T12:19:59.328768","CLASSIFICATION_TYPE":"U","MEAN_ELEMENT_THEORY":"SGP4","BSTAR":"0.00006053500000","PERIAPSIS":"545.792","MEAN_MOTION":"15.06406670","ELEMENT_SET_NO":"999","OBJECT_TYPE":"PAYLOAD","OBJECT_ID":"2021-040AU","DECAY_DATE":null,"TLE_LINE2":"2 48470  53.0551  54.7438 0002023  48.5868 311.5295 15.06406670 41434","ECCENTRICITY":"0.00020230","CENTER_NAME":"EARTH","SITE":"AFETR","PERIOD":"95.592","EPHEMERIS_TYPE":"0","APOAPSIS":"548.594","ARG_OF_PERICENTER":"48.5868","SEMIMAJOR_AXIS":"6925.328","OBJECT_NAME":"STARLINK-2675","REV_AT_EPOCH":"4143","COUNTRY_CODE":"US","TLE_LINE1":"1 48470U 21040AU  22036.51388112  .00000620  00000-0  60535-4 0  9993","RCS_SIZE":"LARGE","TIME_SYSTEM":"UTC","REF_FRAME":"TEME","MEAN_MOTION_DDOT":"0.0000000000000","RA_OF_ASC_NODE":"54.7438","MEAN_ANOMALY":"311.5295"},{"MEAN_MOTION":"15.06422595","PERIAPSIS":"546.170","ELEMENT_SET_NO":"999","OBJECT_TYPE":"PAYLOAD","OBJECT_ID":"2021-040AV","DECAY_DATE":null,"FILE":"3292709","INCLINATION":"53.0545","NORAD_CAT_ID":"48471","MEAN_MOTION_DOT":"0.00003173","LAUNCH_DATE":"2021-05-09","GP_ID":"195368689","EPOCH":"2022-02-05T10:33:50.669856","MEAN_ELEMENT_THEORY":"SGP4","BSTAR":"0.00023168000000","CLASSIFICATION_TYPE":"U","COUNTRY_CODE":"US","REV_AT_EPOCH":"4142","RCS_SIZE":"LARGE","TLE_LINE1":"1 48471U 21040AV  22036.44016979  .00003173  00000-0  23168-3 0  9991","TIME_SYSTEM":"UTC","RA_OF_ASC_NODE":"55.0841","MEAN_ANOMALY":"286.1538","REF_FRAME":"TEME","MEAN_MOTION_DDOT":"0.0000000000000","TLE_LINE2":"2 48471  53.0545  55.0841 0001407  73.9606 286.1538 15.06422595 41427","ECCENTRICITY":"0.00014070","PERIOD":"95.591","EPHEMERIS_TYPE":"0","SITE":"AFETR","CENTER_NAME":"EARTH","APOAPSIS":"548.119","SEMIMAJOR_AXIS":"6925.279","ARG_OF_PERICENTER":"73.9606","OBJECT_NAME":"STARLINK-2684"},{"FILE":"3292883","INCLINATION":"53.0548","NORAD_CAT_ID":"48472","MEAN_MOTION_DOT":"-0.00002489","LAUNCH_DATE":"2021-05-09","GP_ID":"195376674","EPOCH":"2022-02-05T18:04:59.795904","MEAN_ELEMENT_THEORY":"SGP4","BSTAR":"-0.00014823000000","CLASSIFICATION_TYPE":"U","MEAN_MOTION":"15.06403572","PERIAPSIS":"546.081","ELEMENT_SET_NO":"999","OBJECT_ID":"2021-040AW","OBJECT_TYPE":"PAYLOAD","DECAY_DATE":null,"TLE_LINE2":"2 48472  53.0548  53.6632 0001620  57.4865 302.6281 15.06403572 41911","ECCENTRICITY":"0.00016200","EPHEMERIS_TYPE":"0","PERIOD":"95.592","CENTER_NAME":"EARTH","SITE":"AFETR","APOAPSIS":"548.325","SEMIMAJOR_AXIS":"6925.338","ARG_OF_PERICENTER":"57.4865","OBJECT_NAME":"STARLINK-2722","COUNTRY_CODE":"US","REV_AT_EPOCH":"4191","RCS_SIZE":"LARGE","TLE_LINE1":"1 48472U 21040AW  22036.75346986 -.00002489  00000-0 -14823-3 0  9999","TIME_SYSTEM":"UTC","RA_OF_ASC_NODE":"53.6632","MEAN_ANOMALY":"302.6281","MEAN_MOTION_DDOT":"0.0000000000000","REF_FRAME":"TEME"},{"OBJECT_ID":"2021-040AX","OBJECT_TYPE":"PAYLOAD","DECAY_DATE":null,"ELEMENT_SET_NO":"999","PERIAPSIS":"546.132","MEAN_MOTION":"15.06386776","CLASSIFICATION_TYPE":"U","MEAN_ELEMENT_THEORY":"SGP4","BSTAR":"-0.00003486300000","GP_ID":"195368192","EPOCH":"2022-02-05T11:00:22.595040","LAUNCH_DATE":"2021-05-09","MEAN_MOTION_DOT":"-0.00000801","NORAD_CAT_ID":"48473","FILE":"3292709","INCLINATION":"53.0557","MEAN_MOTION_DDOT":"0.0000000000000","REF_FRAME":"TEME","RA_OF_ASC_NODE":"55.0043","MEAN_ANOMALY":"296.4710","TIME_SYSTEM":"UTC","TLE_LINE1":"1 48473U 21040AX  22036.45859485 -.00000801  00000-0 -34863-4 0  9993","RCS_SIZE":"LARGE","REV_AT_EPOCH":"4142","COUNTRY_CODE":"US","OBJECT_NAME":"STARLINK-2658","APOAPSIS":"548.376","SEMIMAJOR_AXIS":"6925.389","ARG_OF_PERICENTER":"63.6446","SITE":"AFETR","CENTER_NAME":"EARTH","PERIOD":"95.593","EPHEMERIS_TYPE":"0","TLE_LINE2":"2 48473  53.0557  55.0043 0001620  63.6446 296.4710 15.06386776 41427","ECCENTRICITY":"0.00016200"}];
